[{"OBJECT_NAME":"ICESAT-2","OBJECT_ID":"2018-070A","EPOCH":"2026-03-09T22:54:12.225888","MEAN_MOTION":15.28328617,"ECCENTRICITY":0.00038245,"INCLINATION":91.9993,"RA_OF_ASC_NODE":264.2397,"ARG_OF_PERICENTER":123.8941,"MEAN_ANOMALY":236.2673,"EPHEMERIS_TYPE":0,"CLASSIFICATION_TYPE":"U","NORAD_CAT_ID":43613,"ELEMENT_SET_NO":999,"REV_AT_EPOCH":41730,"BSTAR":0.00014022643,"MEAN_MOTION_DOT":3.87e-5,"MEAN_MOTION_DDOT":0},{"OBJECT_NAME":"STARLINK-31573","OBJECT_ID":"2024-057Q","EPOCH":"2026-03-09T08:39:12.852288","MEAN_MOTION":15.27550253,"ECCENTRICITY":0.00014389,"INCLINATION":43.0023,"RA_OF_ASC_NODE":188.5038,"ARG_OF_PERICENTER":261.047,"MEAN_ANOMALY":99.0218,"EPHEMERIS_TYPE":0,"CLASSIFICATION_TYPE":"U","NORAD_CAT_ID":59334,"ELEMENT_SET_NO":999,"REV_AT_EPOCH":10979,"BSTAR":0.00010866706,"MEAN_MOTION_DOT":2.727e-5,"MEAN_MOTION_DDOT":0}]
